0 CZ-4 DEB
1 26228U 99057DS  13282.31464471  .00016462  00000-0  22232-2 0  8504
2 26228 098.4395 102.0591 0048761 061.9642 060.7706 14.78318251722627
0 CZ-4 DEB
1 26228U 99057DS  13283.24882716  .00014894  00000-0  20117-2 0  8511
2 26228 098.4396 103.0378 0048754 059.0252 352.4379 14.78338372722767
0 CZ-4 DEB
1 26228U 99057DS  13283.78076244  .00011239  00000-0  15164-2 0  8528
2 26228 098.4397 103.5946 0048676 057.3318 303.3071 14.78324915722842
0 CZ-4 DEB
1 26228U 99057DS  13285.83251829  .00011054  00000-0  14942-2 0  8539
2 26228 098.4388 105.7452 0048720 050.7691 063.1692 14.78390756723149
0 CZ-4 DEB
1 26228U 99057DS  13287.18154867  .00011782  00000-0  15910-2 0  8548
2 26228 098.4384 107.1586 0048703 046.6056 042.9231 14.78414089723341
0 CZ-4 DEB
1 26228U 99057DS  13288.19663362  .00021378  00000-0  28737-2 0  8559
2 26228 098.4380 108.2225 0048831 043.2087 045.7208 14.78448434723490
0 CZ-4 DEB
1 26228U 99057DS  13289.47055365  .00016151  00000-0  21730-2 0  8569
2 26228 098.4376 109.5577 0048699 039.2504 346.0535 14.78486623723683
0 CZ-4 DEB
1 26228U 99057DS  13290.48515810  .00017563  00000-0  23606-2 0  8571
2 26228 098.4375 110.6210 0048650 036.0710 346.3337 14.78509413723833
0 CZ-4 DEB
1 26228U 99057DS  13291.49936565  .00015329  00000-0  20609-2 0  8586
2 26228 098.4376 111.6842 0048555 032.9387 344.5522 14.78535280723988
0 CZ-4 DEB
1 26228U 99057DS  13292.80346009  .00014814  00000-0  19901-2 0  8592
2 26228 098.4380 113.0510 0048710 028.7080 086.0628 14.78571547724170
0 CZ-4 DEB
1 26228U 99057DS  13293.82056181  .00015829  00000-0  21245-2 0  8607
2 26228 098.4381 114.1172 0048622 025.5118 099.9603 14.78594970724324
0 CZ-4 DEB
1 26228U 99057DS  13294.83348961  .00019389  00000-0  25977-2 0  8611
2 26228 098.4382 115.1790 0048608 022.3169 091.7434 14.78619965724477
0 CZ-4 DEB
1 26228U 99057DS  13296.18225624  .00019000  00000-0  25435-2 0  8621
2 26228 098.4385 116.5929 0048710 018.0788 071.3136 14.78657683724676
